NORAD_CAT_ID,OBJECT_NAME,OBJECT_TYPE,EPOCH,MEAN_MOTION,ECCENTRICITY,INCLINATION,RA_OF_ASC_NODE,ARG_OF_PERICENTER,MEAN_ANOMALY,BSTAR,MEAN_MOTION_DOT,MEAN_MOTION_DDOT,TLE_LINE0,TLE_LINE1,TLE_LINE2,SEMIMAJOR_AXIS,PERIOD,APOGEE,PERIGEE,DECAYED
51725.0,STARLINK-3522,PAYLOAD,2022-09-14 14:00:01,15.0883978,0.0001894,53.2147,279.8273,53.1996,342.0823,0.001451,0.0002288,0.0,0 STARLINK-3522,1 51725U 22016M   22257.58334491  .00022880  00000-0  14510-2 0  9999,2 51725  53.2147 279.8273 0001894  53.1996 342.0823 15.08839780  1302,6917.880999999999,95.438,541.056,538.436,0.0
51725.0,STARLINK-3522,PAYLOAD,2022-09-14 22:00:00,15.08839309,0.0001730999999999,53.2148,278.3291,59.9426,346.952,0.0013795,0.00021735,0.0,0 STARLINK-3522,1 51725U 22016M   22257.91667824  .00021735  00000-0  13795-2 0  9997,2 51725  53.2148 278.3291 0001731  59.9426 346.9520 15.08839309  1303,6917.8830000000025,95.438,540.945,538.55,0.0
51725.0,STARLINK-3522,PAYLOAD,2022-09-15 06:00:00,15.08852669,0.0001810999999999,53.2148,276.8339,57.1286,1.3695,-0.002103,-0.00033614,0.0,0 STARLINK-3522,1 51725U 22016M   22258.25001157 -.00033614  00000-0 -21030-2 0  9998,2 51725  53.2148 276.8339 0001811  57.1286   1.3695 15.08852669 32619,6917.842,95.437,540.9590000000002,538.4540000000002,0.0
51725.0,STARLINK-3522,PAYLOAD,2022-09-15 14:00:01,15.08835898,0.0001861,53.2146,275.3378,51.9094,18.1836,0.0011753,0.00018464,0.0,0 STARLINK-3522,1 51725U 22016M   22258.58334491  .00018464  00000-0  11753-2 0  9999,2 51725  53.2146 275.3378 0001861  51.9094  18.1836 15.08835898  1308,6917.893,95.438,541.045,538.471,0.0
51725.0,STARLINK-3522,PAYLOAD,2022-09-15 16:00:00,15.08855445,0.0001839,53.2146,274.9632,54.0099,108.977,-0.0012728,-0.00020496,0.0,0 STARLINK-3522,1 51725U 22016M   22258.66667824 -.00020496  00000-0 -12728-2 0  9990,2 51725  53.2146 274.9632 0001839  54.0099 108.9770 15.08855445  1305,6917.833000000001,95.437,540.97,538.4259999999998,0.0
51725.0,STARLINK-3522,PAYLOAD,2022-09-16 10:21:29,15.08851176,0.0001888,53.2155,271.5279,59.3897,300.7281,0.00017667,2.526e-05,0.0,0 STARLINK-3522,1 51725U 22016M   22259.43158566  .00002526  00000-0  17667-3 0  9994,2 51725  53.2155 271.5279 0001888  59.3897 300.7281 15.08851176 32785,6917.846,95.437,541.0169999999998,538.405,0.0
51725.0,STARLINK-3522,PAYLOAD,2022-09-17 03:50:44,15.08830576,0.0001629,53.2153,268.2571,58.9171,301.1981,-0.00021227,-3.664e-05,0.0,0 STARLINK-3522,1 51725U 22016M   22260.16023265 -.00003664  00000-0 -21227-3 0  9996,2 51725  53.2153 268.2571 0001629  58.9171 301.1981 15.08830576 32899,6917.909000000002,95.438,540.901,538.6469999999998,0.0
51725.0,STARLINK-3522,PAYLOAD,2022-09-17 10:12:16,15.088298000000002,0.0001643,53.2159,267.0675,57.6739,302.4412,-0.00015843,-2.808e-05,0.0,0 STARLINK-3522,1 51725U 22016M   22260.42519465 -.00002808  00000-0 -15843-3 0  9993,2 51725  53.2159 267.0675 0001643  57.6739 302.4412 15.08829800 31800,6917.9119999999975,95.438,540.913,538.64,0.0
51725.0,STARLINK-3522,PAYLOAD,2022-09-17 19:44:35,15.08830606,0.0001789,53.2154,265.2842,57.1065,303.0099,-3.03e-05,-7.699999999999999e-06,0.0,0 STARLINK-3522,1 51725U 22016M   22260.82263761 -.00000770  00000-0 -30300-4 0  9994,2 51725  53.2154 265.2842 0001789  57.1065 303.0099 15.08830606 31869,6917.909000000002,95.438,541.012,538.536,0.0
51725.0,STARLINK-3522,PAYLOAD,2022-09-18 06:52:17,15.08836785,0.0001785,53.2155,263.2027,54.697,305.4189,3.133e-05,2.11e-06,0.0,0 STARLINK-3522,1 51725U 22016M   22261.28631745  .00000211  00000-0  31330-4 0  9998,2 51725  53.2155 263.2027 0001785  54.6970 305.4189 15.08836785 31934,6917.89,95.438,540.99,538.52,0.0
51725.0,STARLINK-3522,PAYLOAD,2022-09-18 19:35:23,15.08835381,0.0001788,53.2154,260.8238,55.6207,304.4954,0.00040681,6.191e-05,0.0,0 STARLINK-3522,1 51725U 22016M   22261.81624292  .00006191  00000-0  40681-3 0  9997,2 51725  53.2154 260.8238 0001788  55.6207 304.4954 15.08835381 32017,6917.895,95.438,540.996,538.523,0.0
51725.0,STARLINK-3522,PAYLOAD,2022-09-19 05:07:42,15.08847642,0.0001810999999999,53.2155,259.0394,56.8333,303.2833,0.00055549,8.565e-05,0.0,0 STARLINK-3522,1 51725U 22016M   22262.21368128  .00008565  00000-0  55549-3 0  9991,2 51725  53.2155 259.0394 0001811  56.8333 303.2833 15.08847642 32073,6917.857,95.437,540.975,538.469,0.0
51725.0,STARLINK-3522,PAYLOAD,2022-09-19 19:26:09,15.0886076,0.0001814,53.2155,256.3631,57.9251,302.1917,0.00059801,9.247e-05,0.0,0 STARLINK-3522,1 51725U 22016M   22262.80983444  .00009247  00000-0  59801-3 0  9993,2 51725  53.2155 256.3631 0001814  57.9251 302.1917 15.08860760 32168,6917.816999999999,95.436,540.937,538.427,0.0
51725.0,STARLINK-3522,PAYLOAD,2022-09-20 01:47:42,15.08850338,0.0001773,53.2153,255.1736,56.7095,303.4067,0.00022778,3.34e-05,0.0,0 STARLINK-3522,1 51725U 22016M   22263.07479472  .00003340  00000-0  22778-3 0  9995,2 51725  53.2153 255.1736 0001773  56.7095 303.4067 15.08850338 32201,6917.849,95.437,540.94,538.487,0.0
51725.0,STARLINK-3522,PAYLOAD,2022-09-20 20:52:18,15.08860522,0.0001525,53.2152,251.6051,62.4937,297.621,0.00028077,4.186e-05,0.0,0 STARLINK-3522,1 51725U 22016M   22263.86966364  .00004186  00000-0  28077-3 0  9990,2 51725  53.2152 251.6051 0001525  62.4937 297.6210 15.08860522 32328,6917.818,95.436,540.738,538.628,0.0
51725.0,STARLINK-3522,PAYLOAD,2022-09-21 00:03:05,15.08848219,0.0001595,53.2151,251.0103,56.4925,303.622,-0.00010167,-1.906e-05,0.0,0 STARLINK-3522,1 51725U 22016M   22264.00214401 -.00001906  00000-0 -10167-3 0  9995,2 51725  53.2151 251.0103 0001595  56.4925 303.6220 15.08848219 33471,6917.855,95.437,540.8240000000002,538.617,0.0
51725.0,STARLINK-3522,PAYLOAD,2022-09-21 22:18:29,15.08844204,0.0001658,53.2144,246.8472,55.7234,304.3915,0.00023354,3.431e-05,0.0,0 STARLINK-3522,1 51725U 22016M   22264.92950504  .00003431  00000-0  23354-3 0  9992,2 51725  53.2144 246.8472 0001658  55.7234 304.3915 15.08844204 32488,6917.868,95.437,540.88,538.586,0.0
51725.0,STARLINK-3522,PAYLOAD,2022-09-22 15:47:44,15.08835978,0.0001665999999999,53.2142,243.5756,57.9279,302.1875,8.947200000000001e-05,1.136e-05,0.0,0 STARLINK-3522,1 51725U 22016M   22265.65814893  .00001136  00000-0  89472-4 0  9997,2 51725  53.2142 243.5756 0001666  57.9279 302.1875 15.08835978 33724,6917.893,95.438,540.91,538.605,0.0
51725.0,STARLINK-3522,PAYLOAD,2022-09-23 06:06:12,15.08843455,0.0002026,53.215,240.8999,48.2458,311.8707,0.00022022,3.219e-05,0.0,0 STARLINK-3522,1 51725U 22016M   22266.25430888  .00003219  00000-0  22022-3 0  9993,2 51725  53.2150 240.8999 0002026  48.2458 311.8707 15.08843455 32689,6917.87,95.437,541.136,538.3330000000002,0.0
51725.0,STARLINK-3522,PAYLOAD,2022-09-24 04:21:36,15.08842812,0.0001801,53.2155,236.7372,57.9558,302.1609,0.00021407,3.121e-05,0.0,0 STARLINK-3522,1 51725U 22016M   22267.18167181  .00003121  00000-0  21407-3 0  9997,2 51725  53.2155 236.7372 0001801  57.9558 302.1609 15.08842812 33952,6917.871999999999,95.437,540.9830000000002,538.491,0.0
51725.0,STARLINK-3522,PAYLOAD,2022-09-24 07:32:22,15.08847087,0.0001816,53.2155,236.1426,57.2004,302.9162,0.00027708,4.125e-05,0.0,0 STARLINK-3522,1 51725U 22016M   22267.31415031  .00004125  00000-0  27708-3 0  9997,2 51725  53.2155 236.1426 0001816  57.2004 302.9162 15.08847087 32849,6917.859,95.437,540.98,538.467,0.0
51725.0,STARLINK-3522,PAYLOAD,2022-09-25 07:23:09,15.08848063,0.0001794,53.216,231.6817,60.6484,299.4688,0.00028249,4.212e-05,0.0,0 STARLINK-3522,1 51725U 22016M   22268.30775056  .00004212  00000-0  28249-3 0  9991,2 51725  53.2160 231.6817 0001794  60.6484 299.4688 15.08848063 34125,6917.856,95.437,540.962,538.48,0.0
51725.0,STARLINK-3522,PAYLOAD,2022-09-26 02:27:47,15.08843729,0.0001824,53.2163,228.1131,59.4211,300.696,7.7419e-05,9.44e-06,0.0,0 STARLINK-3522,1 51725U 22016M   22269.10263026  .00000944  00000-0  77419-4 0  9991,2 51725  53.2163 228.1131 0001824  59.4211 300.6960 15.08843729 34241,6917.869000000002,95.437,540.996,538.472,0.0
51725.0,STARLINK-3522,PAYLOAD,2022-09-27 02:18:34,15.088377,0.0001797,53.2164,223.6525,55.81800000000001,304.2982,-2.5423e-05,-6.93e-06,0.0,0 STARLINK-3522,1 51725U 22016M   22270.09623357 -.00000693  00000-0 -25423-4 0  9999,2 51725  53.2164 223.6525 0001797  55.8180 304.2982 15.08837700 33260,6917.887,95.438,540.996,538.509,0.0
51725.0,STARLINK-3522,PAYLOAD,2022-09-28 03:44:44,15.08833992,0.0001661,53.2167,218.8854,62.4422,297.6739,0.00012255,1.663e-05,0.0,0 STARLINK-3522,1 51725U 22016M   22271.15607385  .00001663  00000-0  12255-3 0  9994,2 51725  53.2167 218.8854 0001661  62.4422 297.6739 15.08833992 34554,6917.899,95.438,540.913,538.615,0.0
51725.0,STARLINK-3522,PAYLOAD,2022-09-28 13:17:03,15.08837454,0.0001579,53.2169,217.1109,54.7743,305.3397,0.00011351,1.519e-05,0.0,0 STARLINK-3522,1 51725U 22016M   22271.55351407  .00001519  00000-0  11351-3 0  9995,2 51725  53.2169 217.1109 0001579  54.7743 305.3397 15.08837454 33484,6917.888000000001,95.438,540.846,538.661,0.0
51725.0,STARLINK-3522,PAYLOAD,2022-09-29 03:35:32,15.08829426,0.0001602,53.2163,214.4354,57.3679,302.7467,-2.9701e-05,-7.61e-06,0.0,0 STARLINK-3522,1 51725U 22016M   22272.14968595 -.00000761  00000-0 -29701-4 0  9992,2 51725  53.2163 214.4354 0001602  57.3679 302.7467 15.08829426 34709,6917.913000000001,95.438,540.886,538.669,0.0
51725.0,STARLINK-3522,PAYLOAD,2022-09-29 05:10:56,15.08826783,0.0001547,53.2163,214.1371,58.5282,301.5862,-6.026100000000001e-05,-1.247e-05,0.0,0 STARLINK-3522,1 51725U 22016M   22272.21592834 -.00001247  00000-0 -60261-4 0  9995,2 51725  53.2163 214.1371 0001547  58.5282 301.5862 15.08826783 33580,6917.920999999999,95.438,540.856,538.716,0.0
51725.0,STARLINK-3522,PAYLOAD,2022-09-30 12:58:38,15.08846661,0.0001678,53.2168,208.1908,58.1953,301.9202,0.00020688,3.007e-05,0.0,0 STARLINK-3522,1 51725U 22016M   22273.54072099  .00003007  00000-0  20688-3 0  9990,2 51725  53.2168 208.1908 0001678  58.1953 301.9202 15.08846661 34917,6917.86,95.437,540.886,538.564,0.0
